{
  "type": "FeatureCollection",
  "features": [
    {
      "type": "Feature",
      "properties": {
        "norad_id": 34010,
        "name": "COSMOS 2251 DEB",
        "group": "cosmos-2251-debris",
        "lat": -69.06892329647178,
        "lon": 163.60122477419455,
        "alt_km": 523.9439693779741,
        "timestamp": "2025-12-07T03:52:32.895901+00:00",
        "meta_object_name": "COSMOS 2251 DEB",
        "meta_object_id": "1993-036GV",
        "meta_epoch": "2025-12-06T07:45:30.700800",
        "meta_mean_motion": 15.17023433,
        "meta_eccentricity": 0.0004467,
        "meta_inclination": 73.9999,
        "meta_ra_of_asc_node": 296.7443,
        "meta_arg_of_pericenter": 61.0093,
        "meta_mean_anomaly": 299.155,
        "meta_ephemeris_type": 0,
        "meta_classification_type": "U",
        "meta_norad_cat_id": 34010,
        "meta_element_set_no": 999,
        "meta_rev_at_epoch": 89188,
        "meta_bstar": 0.0074892494,
        "meta_mean_motion_dot": 0.00151277,
        "meta_mean_motion_ddot": 0,
        "tle_line1": "1 34010U 93036GV  25340.32327200  .00151277  00000+0  74892-2 0  9996",
        "tle_line2": "2 34010  73.9999 296.7443 0004467  61.0093 299.1550 15.17023433891885"
      },
      "geometry": {
        "type": "Point",
        "coordinates": [
          163.60122477419455,
          -69.06892329647178
        ]
      }
    },
    {
      "type": "Feature",
      "properties": {
        "norad_id": 34011,
        "name": "COSMOS 2251 DEB",
        "group": "cosmos-2251-debris",
        "lat": 58.22698196367587,
        "lon": 132.93254680527215,
        "alt_km": 731.1885642144962,
        "timestamp": "2025-12-07T03:52:32.895912+00:00",
        "meta_object_name": "COSMOS 2251 DEB",
        "meta_object_id": "1993-036GW",
        "meta_epoch": "2025-12-06T00:41:21.098688",
        "meta_mean_motion": 14.41719901,
        "meta_eccentricity": 0.00352462,
        "meta_inclination": 74.0147,
        "meta_ra_of_asc_node": 342.6021,
        "meta_arg_of_pericenter": 68.4372,
        "meta_mean_anomaly": 292.0534,
        "meta_ephemeris_type": 0,
        "meta_classification_type": "U",
        "meta_norad_cat_id": 34011,
        "meta_element_set_no": 999,
        "meta_rev_at_epoch": 87819,
        "meta_bstar": 0.0013246525,
        "meta_mean_motion_dot": 4.329e-05,
        "meta_mean_motion_ddot": 0,
        "tle_line1": "1 34011U 93036GW  25340.02871642  .00004329  00000+0  13247-2 0  9990",
        "tle_line2": "2 34011  74.0147 342.6021 0035246  68.4372 292.0534 14.41719901878197"
      },
      "geometry": {
        "type": "Point",
        "coordinates": [
          132.93254680527215,
          58.22698196367587
        ]
      }
    },
    {
      "type": "Feature",
      "properties": {
        "norad_id": 34014,
        "name": "COSMOS 2251 DEB",
        "group": "cosmos-2251-debris",
        "lat": 32.08490079118618,
        "lon": 101.25483058142295,
        "alt_km": 641.801051972302,
        "timestamp": "2025-12-07T03:52:32.895922+00:00",
        "meta_object_name": "COSMOS 2251 DEB",
        "meta_object_id": "1993-036GZ",
        "meta_epoch": "2025-12-06T14:58:30.112032",
        "meta_mean_motion": 14.73017189,
        "meta_eccentricity": 0.00368308,
        "meta_inclination": 74.0178,
        "meta_ra_of_asc_node": 292.6538,
        "meta_arg_of_pericenter": 73.9795,
        "meta_mean_anomaly": 102.6943,
        "meta_ephemeris_type": 0,
        "meta_classification_type": "U",
        "meta_norad_cat_id": 34014,
        "meta_element_set_no": 999,
        "meta_rev_at_epoch": 89213,
        "meta_bstar": 0.0017524147,
        "meta_mean_motion_dot": 0.00011369,
        "meta_mean_motion_ddot": 0,
        "tle_line1": "1 34014U 93036GZ  25340.62395963  .00011369  00000+0  17524-2 0  9990",
        "tle_line2": "2 34014  74.0178 292.6538 0036830  73.9795 102.6943 14.73017189892135"
      },
      "geometry": {
        "type": "Point",
        "coordinates": [
          101.25483058142295,
          32.08490079118618
        ]
      }
    },
    {
      "type": "Feature",
      "properties": {
        "norad_id": 34015,
        "name": "COSMOS 2251 DEB",
        "group": "cosmos-2251-debris",
        "lat": 18.488862963913068,
        "lon": -15.417792683689532,
        "alt_km": 696.9029237130726,
        "timestamp": "2025-12-07T03:52:32.895933+00:00",
        "meta_object_name": "COSMOS 2251 DEB",
        "meta_object_id": "1993-036HA",
        "meta_epoch": "2025-12-06T15:57:35.593920",
        "meta_mean_motion": 14.60131736,
        "meta_eccentricity": 0.00211556,
        "meta_inclination": 74.0228,
        "meta_ra_of_asc_node": 171.0276,
        "meta_arg_of_pericenter": 268.2531,
        "meta_mean_anomaly": 163.8532,
        "meta_ephemeris_type": 0,
        "meta_classification_type": "U",
        "meta_norad_cat_id": 34015,
        "meta_element_set_no": 999,
        "meta_rev_at_epoch": 88442,
        "meta_bstar": 0.0021428472,
        "meta_mean_motion_dot": 0.00010331,
        "meta_mean_motion_ddot": 0,
        "tle_line1": "1 34015U 93036HA  25340.66499530  .00010331  00000+0  21428-2 0  9996",
        "tle_line2": "2 34015  74.0228 171.0276 0021155 268.2531 163.8532 14.60131736884429"
      },
      "geometry": {
        "type": "Point",
        "coordinates": [
          -15.417792683689532,
          18.488862963913068
        ]
      }
    },
    {
      "type": "Feature",
      "properties": {
        "norad_id": 34018,
        "name": "COSMOS 2251 DEB",
        "group": "cosmos-2251-debris",
        "lat": 73.77607059202539,
        "lon": -174.70956424954454,
        "alt_km": 825.7465313559569,
        "timestamp": "2025-12-07T03:52:32.895943+00:00",
        "meta_object_name": "COSMOS 2251 DEB",
        "meta_object_id": "1993-036HD",
        "meta_epoch": "2025-12-06T15:22:02.188704",
        "meta_mean_motion": 13.81058146,
        "meta_eccentricity": 0.02641159,
        "meta_inclination": 73.8771,
        "meta_ra_of_asc_node": 102.4314,
        "meta_arg_of_pericenter": 139.4681,
        "meta_mean_anomaly": 240.8135,
        "meta_ephemeris_type": 0,
        "meta_classification_type": "U",
        "meta_norad_cat_id": 34018,
        "meta_element_set_no": 999,
        "meta_rev_at_epoch": 84573,
        "meta_bstar": 0.0010393814,
        "meta_mean_motion_dot": 1.409e-05,
        "meta_mean_motion_ddot": 0,
        "tle_line1": "1 34018U 93036HD  25340.64030311  .00001409  00000+0  10394-2 0  9991",
        "tle_line2": "2 34018  73.8771 102.4314 0264115 139.4681 240.8135 13.81058146845734"
      },
      "geometry": {
        "type": "Point",
        "coordinates": [
          -174.70956424954454,
          73.77607059202539
        ]
      }
    },
    {
      "type": "Feature",
      "properties": {
        "norad_id": 34019,
        "name": "COSMOS 2251 DEB",
        "group": "cosmos-2251-debris",
        "lat": -52.2187519031031,
        "lon": -97.20812827407558,
        "alt_km": 740.8378980552516,
        "timestamp": "2025-12-07T03:52:32.895954+00:00",
        "meta_object_name": "COSMOS 2251 DEB",
        "meta_object_id": "1993-036HE",
        "meta_epoch": "2025-12-06T15:46:16.043232",
        "meta_mean_motion": 14.33890863,
        "meta_eccentricity": 0.00627365,
        "meta_inclination": 73.9553,
        "meta_ra_of_asc_node": 61.9262,
        "meta_arg_of_pericenter": 244.0371,
        "meta_mean_anomaly": 268.8327,
        "meta_ephemeris_type": 0,
        "meta_classification_type": "U",
        "meta_norad_cat_id": 34019,
        "meta_element_set_no": 999,
        "meta_rev_at_epoch": 87433,
        "meta_bstar": 0.0017130893,
        "meta_mean_motion_dot": 4.855e-05,
        "meta_mean_motion_ddot": 0,
        "tle_line1": "1 34019U 93036HE  25340.65713013  .00004855  00000+0  17131-2 0  9994",
        "tle_line2": "2 34019  73.9553  61.9262 0062736 244.0371 268.8327 14.33890863874338"
      },
      "geometry": {
        "type": "Point",
        "coordinates": [
          -97.20812827407558,
          -52.2187519031031
        ]
      }
    },
    {
      "type": "Feature",
      "properties": {
        "norad_id": 34021,
        "name": "COSMOS 2251 DEB",
        "group": "cosmos-2251-debris",
        "lat": 12.901537498880604,
        "lon": 144.0616752701966,
        "alt_km": 726.3664462116803,
        "timestamp": "2025-12-07T03:52:32.895964+00:00",
        "meta_object_name": "COSMOS 2251 DEB",
        "meta_object_id": "1993-036HG",
        "meta_epoch": "2025-12-06T15:00:56.750976",
        "meta_mean_motion": 14.49912692,
        "meta_eccentricity": 0.00208211,
        "meta_inclination": 74.0354,
        "meta_ra_of_asc_node": 141.3077,
        "meta_arg_of_pericenter": 285.9476,
        "meta_mean_anomaly": 171.5988,
        "meta_ephemeris_type": 0,
        "meta_classification_type": "U",
        "meta_norad_cat_id": 34021,
        "meta_element_set_no": 999,
        "meta_rev_at_epoch": 88541,
        "meta_bstar": 0.00087764449,
        "meta_mean_motion_dot": 3.376e-05,
        "meta_mean_motion_ddot": 0,
        "tle_line1": "1 34021U 93036HG  25340.62565684  .00003376  00000+0  87764-3 0  9990",
        "tle_line2": "2 34021  74.0354 141.3077 0020821 285.9476 171.5988 14.49912692885414"
      },
      "geometry": {
        "type": "Point",
        "coordinates": [
          144.0616752701966,
          12.901537498880604
        ]
      }
    }
  ]
}